GSAT0225 (GALILEO 29)   
1 59598U 24079A   26181.01618808 -.00000025  00000+0  00000+0 0  9994
2 59598  55.1261 100.7218 0000995 297.2316 241.8937  1.70474129 13531
GSAT0227 (GALILEO 30)   
1 59600U 24079C   26180.32114690 -.00000029  00000+0  00000+0 0  9995
2 59600  55.1217 100.7395 0002340  56.5213 303.4857  1.70474124 13575
GSAT0232 (GALILEO 32)   
1 61182U 24167A   26182.31433645  .00000074  00000+0  00000+0 0  9995
2 61182  55.1822 220.9262 0006283 229.8495 129.0304  1.70474427 11113
GSAT0226 (GALILEO 31)   
1 61183U 24167B   26180.40640611  .00000072  00000+0  00000+0 0  9995
2 61183  55.1811 220.9855 0003004 232.0216 127.2488  1.70474415 11058
BEIDOU-3 M25            
1 61186U 24168B   26182.42127927 -.00000066  00000+0  00000+0 0  9997
2 61186  54.4600 301.7484 0003233 296.1415  65.0618  1.86230354 12055
BEIDOU-3 M27            
1 61187U 24168C   26181.68599231 -.00000070  00000+0  00000+0 0  9991
2 61187  54.4560 301.7567 0001243  46.5728 316.6899  1.86230443  9518
NAVSTAR 83 (USA 440)    
1 62339U 24242A   26180.81572751 -.00000094  00000+0  00000+0 0  9992
2 62339  54.8437 333.6698 0017626   4.4449   3.3802  2.00572141 11517
QZS-6 (MICHIBIKI-6)     
1 62876U 25023A   26182.60630424 -.00000223  00000+0  00000+0 0  9991
2 62876   0.0465 283.6971 0002096 190.5494 114.2143  1.00272068  5097
COSMOS 2584 [GLONASS-K2]
1 63130U 25042A   26176.58687826 -.00000066  00000+0  00000+0 0  9999
2 63130  65.0897  72.5163 0006261 227.4073 132.5759  2.13103987 10225
NAVSTAR 84 (USA 545)    
1 64202U 25116A   26181.80234730 -.00000066  00000+0  00000+0 0  9995
2 64202  55.2432  30.5829 0008184 343.8282 199.4234  2.00575212  8144
COSMOS 2596 [GLONASS-K1]
1 65590U 25206B   26178.83593120 -.00000080  00000+0  00000+0 0  9992
2 65590  64.6279 314.6147 0011061 310.3600  91.2409  2.13101038  6144
GSAT0233 (GALILEO 33)   
1 67160U 25302A   26181.06990801 -.00000024  00000+0  00000+0 0  9998
2 67160  54.3421 101.7645 0000936 196.3354 306.6459  1.70474266  3344
GSAT0234 (GALILEO 34)   
1 67162U 25302C   26182.60212447 -.00000015  00000+0  00000+0 0  9994
2 67162  54.3448 101.7199 0002558 311.1283 232.3172  1.70474235  3421
NAVSTAR 85 (USA 581)    
1 67588U 26017A   26182.15705621 -.00000025  00000+0  00000+0 0  9992
2 67588  55.0967  88.1946 0021295 258.4465 101.3419  2.00570850431898
NAVSTAR 86 (USA 585)    
1 68791U 26087A   26181.47746880  .00000073  00000+0  00000+0 0  9994
2 68791  54.9627 207.2622 0020608 106.5563 328.1341  2.00571590  1102
